NORAD_CAT_ID,OBJECT_NAME,OBJECT_TYPE,EPOCH,MEAN_MOTION,ECCENTRICITY,INCLINATION,RA_OF_ASC_NODE,ARG_OF_PERICENTER,MEAN_ANOMALY,BSTAR,MEAN_MOTION_DOT,MEAN_MOTION_DDOT,TLE_LINE0,TLE_LINE1,TLE_LINE2,SEMIMAJOR_AXIS,PERIOD,APOGEE,PERIGEE,DECAYED
51804.0,STARLINK-3601,PAYLOAD,2022-11-06 12:56:51,15.08833537,0.0001717,53.2199,42.1033,46.2984,313.815,-9.738e-05,-1.837e-05,0.0,0 STARLINK-3601,1 51804U 22017AN  22310.53947999 -.00001837  00000-0 -97380-4 0  9995,2 51804  53.2199  42.1033 0001717  46.2984 313.8150 15.08833537 40100,6917.9,95.438,540.953,538.577,0.0
51804.0,STARLINK-3601,PAYLOAD,2022-11-07 11:12:16,15.08816904,0.0001530999999999,53.2204,37.941,41.8406,318.2703,0.00020953,3.046e-05,0.0,0 STARLINK-3601,1 51804U 22017AN  22311.46685252  .00003046  00000-0  20953-3 0  9992,2 51804  53.2204  37.9410 0001531  41.8406 318.2703 15.08816904 40340,6917.951,95.439,540.875,538.757,0.0
51804.0,STARLINK-3601,PAYLOAD,2022-11-07 15:58:25,15.08821588,0.0001758,53.22,37.0486,42.423,317.6898,0.0002366,3.478e-05,0.0,0 STARLINK-3601,1 51804U 22017AN  22311.66557518  .00003478  00000-0  23660-3 0  9994,2 51804  53.2200  37.0486 0001758  42.4230 317.6898 15.08821588 40277,6917.937,95.439,541.018,538.585,0.0
51804.0,STARLINK-3601,PAYLOAD,2022-11-08 01:30:43,15.08843407,0.0001683,53.2201,35.2656,31.1926,328.9166,0.00036975,5.602e-05,0.0,0 STARLINK-3601,1 51804U 22017AN  22312.06300789  .00005602  00000-0  36975-3 0  9999,2 51804  53.2201  35.2656 0001683  31.1926 328.9166 15.08843407 40436,6917.87,95.437,540.899,538.571,0.0
51804.0,STARLINK-3601,PAYLOAD,2022-11-08 06:16:52,15.08860081,0.0001751,53.2194,34.3746,46.6321,313.4817,0.00058672,9.067e-05,0.0,0 STARLINK-3601,1 51804U 22017AN  22312.26172157  .00009067  00000-0  58672-3 0  9994,2 51804  53.2194  34.3746 0001751  46.6321 313.4817 15.08860081 40465,6917.819,95.436,540.895,538.4730000000002,0.0
51804.0,STARLINK-3601,PAYLOAD,2022-11-08 09:27:38,15.08854225,0.0001351,53.2186,33.774,61.1668,298.946,0.00043055,6.574e-05,0.0,0 STARLINK-3601,1 51804U 22017AN  22312.39419896  .00006574  00000-0  43055-3 0  9991,2 51804  53.2186  33.7740 0001351  61.1668 298.9460 15.08854225 40380,6917.837,95.437,540.637,538.7669999999998,0.0
51804.0,STARLINK-3601,PAYLOAD,2022-11-09 01:21:28,15.08882945,0.0001608,53.2181,30.8032,48.2193,311.8936,0.0006594,0.00010234,0.0,0 STARLINK-3601,1 51804U 22017AN  22313.05657919  .00010234  00000-0  65940-3 0  9990,2 51804  53.2181  30.8032 0001608  48.2193 311.8936 15.08882945 40586,6917.749,95.435,540.727,538.502,0.0
51804.0,STARLINK-3601,PAYLOAD,2022-11-09 10:53:47,15.08864695,0.0002368,53.2198,29.0193,29.8193,330.2934,0.00015598,2.197e-05,0.0,0 STARLINK-3601,1 51804U 22017AN  22313.45401730  .00002197  00000-0  15598-3 0  9995,2 51804  53.2198  29.0193 0002368  29.8193 330.2934 15.08864695 40643,6917.805,95.436,541.308,538.0319999999998,0.0
51804.0,STARLINK-3601,PAYLOAD,2022-11-09 12:29:10,15.08856943,0.0002103,53.2187,28.7151,34.384,325.7288,3.2563e-05,2.3e-06,0.0,0 STARLINK-3601,1 51804U 22017AN  22313.52025808  .00000230  00000-0  32563-4 0  9999,2 51804  53.2187  28.7151 0002103  34.3840 325.7288 15.08856943 40556,6917.829000000002,95.436,541.148,538.239,0.0
51804.0,STARLINK-3601,PAYLOAD,2022-11-10 01:12:16,15.0882555,0.000191,53.2177,26.3436,41.643,318.4707,-0.00060525,-9.904e-05,0.0,0 STARLINK-3601,1 51804U 22017AN  22314.05019171 -.00009904  00000-0 -60525-3 0  9991,2 51804  53.2177  26.3436 0001910  41.6430 318.4707 15.08825550 40731,6917.925,95.438,541.111,538.4680000000002,0.0
51804.0,STARLINK-3601,PAYLOAD,2022-11-10 09:09:12,15.08823825,0.0001908,53.2176,24.858,46.168,313.9469,-0.0003043,-5.126e-05,0.0,0 STARLINK-3601,1 51804U 22017AN  22314.38139174 -.00005126  00000-0 -30430-3 0  9997,2 51804  53.2176  24.8580 0001908  46.1680 313.9469 15.08823825 40689,6917.93,95.439,541.115,538.475,0.0
51804.0,STARLINK-3601,PAYLOAD,2022-11-10 13:55:22,15.08819348,0.000196,53.2173,23.9658,48.8932,311.2229,0.00064028,9.911e-05,0.0,0 STARLINK-3601,1 51804U 22017AN  22314.58011779  .00009911  00000-0  64028-3 0  9993,2 51804  53.2173  23.9658 0001960  48.8932 311.2229 15.08819348 40814,6917.944,95.439,541.164,538.453,0.0
51804.0,STARLINK-3601,PAYLOAD,2022-11-11 10:35:23,15.08853743,0.0002141,53.217,20.1008,48.3599,311.7576,0.0011419,0.00017939,0.0,0 STARLINK-3601,1 51804U 22017AN  22315.44123896  .00017939  00000-0  11419-2 0  9997,2 51804  53.2170  20.1008 0002141  48.3599 311.7576 15.08853743 40946,6917.8380000000025,95.437,541.184,538.222,0.0
51804.0,STARLINK-3601,PAYLOAD,2022-11-11 12:10:46,15.08850433,0.0001968,53.2174,19.803,49.1566,310.9597,0.00090152,0.00014093,0.0,0 STARLINK-3601,1 51804U 22017AN  22315.50747852  .00014093  00000-0  90152-3 0  9998,2 51804  53.2174  19.8030 0001968  49.1566 310.9597 15.08850433 40856,6917.848000000001,95.437,541.075,538.352,0.0
51804.0,STARLINK-3601,PAYLOAD,2022-11-11 13:46:09,15.08841437,0.0001967,53.2171,19.5055,47.1344,312.9813,0.00056464,8.71e-05,0.0,0 STARLINK-3601,1 51804U 22017AN  22315.57372085  .00008710  00000-0  56464-3 0  9994,2 51804  53.2171  19.5055 0001967  47.1344 312.9813 15.08841437 40967,6917.876,95.437,541.102,538.38,0.0
51804.0,STARLINK-3601,PAYLOAD,2022-11-12 10:26:09,15.08848367,0.0001977,53.2176,15.6397,44.9636,315.1516,0.00034752,5.248e-05,0.0,0 STARLINK-3601,1 51804U 22017AN  22316.43483682  .00005248  00000-0  34752-3 0  9995,2 51804  53.2176  15.6397 0001977  44.9636 315.1516 15.08848367 40995,6917.855,95.437,541.087,538.352,0.0
51804.0,STARLINK-3601,PAYLOAD,2022-11-13 03:55:24,15.08837367,0.000221,53.2176,12.3686,22.8689,337.2401,2.3324e-06,-2.51e-06,0.0,0 STARLINK-3601,1 51804U 22017AN  22317.16347422 -.00000251  00000-0  23324-5 0  9992,2 51804  53.2176  12.3686 0002210  22.8689 337.2401 15.08837367 41205,6917.888000000001,95.438,541.2819999999998,538.225,0.0
51804.0,STARLINK-3601,PAYLOAD,2022-11-13 10:16:56,15.08838445,0.0002125,53.2182,11.1806,42.2637,317.8519,-7.9875e-05,-1.559e-05,0.0,0 STARLINK-3601,1 51804U 22017AN  22317.42843551 -.00001559  00000-0 -79875-4 0  9999,2 51804  53.2182  11.1806 0002125  42.2637 317.8519 15.08838445 41142,6917.885,95.438,541.22,538.28,0.0
51804.0,STARLINK-3601,PAYLOAD,2022-11-13 13:27:43,15.0883414,0.000211,53.2181,10.5866,39.7651,320.3495,-0.00012801,-2.325e-05,0.0,0 STARLINK-3601,1 51804U 22017AN  22317.56091754 -.00002325  00000-0 -12801-3 0  9991,2 51804  53.2181  10.5866 0002110  39.7651 320.3495 15.08834140 41163,6917.898,95.438,541.2230000000002,538.304,0.0
51804.0,STARLINK-3601,PAYLOAD,2022-11-14 08:32:22,15.08829036,0.0002217,53.2184,7.0176,40.2609,319.8547,-7.517300000000001e-05,-1.484e-05,0.0,0 STARLINK-3601,1 51804U 22017AN  22318.35581044 -.00001484  00000-0 -75173-4 0  9992,2 51804  53.2184   7.0176 0002217  40.2609 319.8547 15.08829036 41382,6917.9140000000025,95.438,541.313,538.245,0.0
51804.0,STARLINK-3601,PAYLOAD,2022-11-14 10:07:45,15.08829886,0.0002187,53.2184,6.7199,40.8774,319.2382,-6.572199999999999e-05,-1.334e-05,0.0,0 STARLINK-3601,1 51804U 22017AN  22318.42204969 -.00001334  00000-0 -65722-4 0  9991,2 51804  53.2184   6.7199 0002187  40.8774 319.2382 15.08829886 41292,6917.911,95.438,541.289,538.263,0.0
51804.0,STARLINK-3601,PAYLOAD,2022-11-14 13:18:31,15.0883177,0.000208,53.218,6.1244,40.2042,319.9104,-5.1907e-05,-1.114e-05,0.0,0 STARLINK-3601,1 51804U 22017AN  22318.55452892 -.00001114  00000-0 -51907-4 0  9991,2 51804  53.2180   6.1244 0002080  40.2042 319.9104 15.08831770 41314,6917.906,95.438,541.2090000000002,538.332,0.0
51804.0,STARLINK-3601,PAYLOAD,2022-11-15 02:01:35,15.08833654,0.0002133,53.2183,3.7458,41.0521,319.0631,7.2355e-05,8.63e-06,0.0,0 STARLINK-3601,1 51804U 22017AN  22319.08444435  .00000863  00000-0  72355-4 0  9992,2 51804  53.2183   3.7458 0002133  41.0521 319.0631 15.08833654 41495,6917.9,95.438,541.24,538.289,0.0
51804.0,STARLINK-3601,PAYLOAD,2022-11-15 13:09:18,15.08830662,0.0002141,53.2182,1.6642,39.3959,320.7189,4.0431e-05,3.55e-06,0.0,0 STARLINK-3601,1 51804U 22017AN  22319.54813095  .00000355  00000-0  40431-4 0  9991,2 51804  53.2182   1.6642 0002141  39.3959 320.7189 15.08830662 41460,6917.909000000002,95.438,541.255,538.293,0.0
51804.0,STARLINK-3601,PAYLOAD,2022-11-16 11:24:42,15.08836076,0.0002086,53.2184,357.5009,40.9802,319.1347,0.00019613,2.834e-05,0.0,0 STARLINK-3601,1 51804U 22017AN  22320.47548801  .00002834  00000-0  19613-3 0  9996,2 51804  53.2184 357.5009 0002086  40.9802 319.1347 15.08836076 41705,6917.892,95.438,541.2,538.314,0.0
51804.0,STARLINK-3601,PAYLOAD,2022-11-16 13:00:05,15.08835721,0.0002114,53.2182,357.204,40.4019,319.713,0.00020035,2.901e-05,0.0,0 STARLINK-3601,1 51804U 22017AN  22320.54172850  .00002901  00000-0  20035-3 0  9996,2 51804  53.2182 357.2040 0002114  40.4019 319.7130 15.08835721 41614,6917.893,95.438,541.221,538.2959999999998,0.0
51804.0,STARLINK-3601,PAYLOAD,2022-11-16 19:21:38,15.08837512,0.0002169,53.2183,356.0143,41.1863,318.9292,0.00011551,1.55e-05,0.0,0 STARLINK-3601,1 51804U 22017AN  22320.80668987  .00001550  00000-0  11551-3 0  9998,2 51804  53.2183 356.0143 0002169  41.1863 318.9292 15.08837512 41655,6917.888000000001,95.438,541.253,538.253,0.0
51804.0,STARLINK-3601,PAYLOAD,2022-11-17 09:40:06,15.08835879,0.0002159,53.2182,353.3375,38.8508,321.2639,7.231800000000001e-05,8.63e-06,0.0,0 STARLINK-3601,1 51804U 22017AN  22321.40285209  .00000863  00000-0  72318-4 0  9992,2 51804  53.2182 353.3375 0002159  38.8508 321.2639 15.08835879 41745,6917.893,95.438,541.252,538.264,0.0
51804.0,STARLINK-3601,PAYLOAD,2022-11-17 19:12:24,15.08842328,0.0002045,53.2177,351.55400000000014,39.911,320.2032,7.0597e-05,8.36e-06,0.0,0 STARLINK-3601,1 51804U 22017AN  22321.80028705  .00000836  00000-0  70597-4 0  9999,2 51804  53.2177 351.5540 0002045  39.9110 320.2032 15.08842328 41808,6917.873000000001,95.437,541.153,538.3240000000002,0.0
